start=new Date('2023-06-08T00:00:00.000Z').valueOf();
sats=[{"TLE_LINE2":"2 53229  97.6555 219.9399 0005335 182.0721 178.0482 15.01256258 48398","CLASSIFICATION_TYPE":"U","SEMIMAJOR_AXIS":"6941.158","MEAN_MOTION_DDOT":"0.0000000000000","ARG_OF_PERICENTER":"182.0721","LAUNCH_DATE":"2022-07-22","NORAD_CAT_ID":"53229","OBJECT_NAME":"STARLINK-4367","TLE_LINE1":"1 53229U 22084AS  23158.73756650  .00000201  00000-0  20239-4 0  9998","COUNTRY_CODE":"US","OBJECT_TYPE":"PAYLOAD","EPHEMERIS_TYPE":"0","SITE":"AFWTR","TIME_SYSTEM":"UTC","REF_FRAME":"TEME","CENTER_NAME":"EARTH","RA_OF_ASC_NODE":"219.9399","PERIOD":"95.920","ELEMENT_SET_NO":"999","BSTAR":"0.00002023900000","MEAN_ANOMALY":"178.0482","PERIAPSIS":"559.320","INCLINATION":"97.6555","REV_AT_EPOCH":"4839","GP_ID":"233432828","ECCENTRICITY":"0.00053350","EPOCH":"2023-06-07T17:42:05.745600","DECAY_DATE":null,"OBJECT_ID":"2022-084AS","MEAN_ELEMENT_THEORY":"SGP4","FILE":"3927436","RCS_SIZE":"LARGE","MEAN_MOTION":"15.01256258","APOAPSIS":"566.726","MEAN_MOTION_DOT":"0.00000201"},{"SEMIMAJOR_AXIS":"6941.121","TLE_LINE2":"2 53230  97.6555 219.9389 0001079 116.0859 244.0476 15.01268280 48394","MEAN_MOTION_DDOT":"0.0000000000000","CLASSIFICATION_TYPE":"U","LAUNCH_DATE":"2022-07-22","ARG_OF_PERICENTER":"116.0859","OBJECT_NAME":"STARLINK-4364","NORAD_CAT_ID":"53230","TLE_LINE1":"1 53230U 22084AT  23158.74151047 -.00001068  00000-0 -78540-4 0  9992","COUNTRY_CODE":"US","OBJECT_TYPE":"PAYLOAD","EPHEMERIS_TYPE":"0","SITE":"AFWTR","TIME_SYSTEM":"UTC","REF_FRAME":"TEME","CENTER_NAME":"EARTH","RA_OF_ASC_NODE":"219.9389","PERIOD":"95.919","ELEMENT_SET_NO":"999","BSTAR":"-0.00007854000000","PERIAPSIS":"562.237","INCLINATION":"97.6555","MEAN_ANOMALY":"244.0476","REV_AT_EPOCH":"4839","GP_ID":"233433580","ECCENTRICITY":"0.00010790","EPOCH":"2023-06-07T17:47:46.504608","DECAY_DATE":null,"OBJECT_ID":"2022-084AT","MEAN_ELEMENT_THEORY":"SGP4","RCS_SIZE":"LARGE","FILE":"3927436","MEAN_MOTION":"15.01268280","APOAPSIS":"563.735","MEAN_MOTION_DOT":"-0.00001068"},{"EPOCH":"2023-06-07T17:36:46.016352","GP_ID":"233433331","ECCENTRICITY":"0.00050400","REV_AT_EPOCH":"4839","MEAN_ANOMALY":"186.9439","PERIAPSIS":"559.525","INCLINATION":"97.6559","BSTAR":"0.00007010900000","MEAN_MOTION_DOT":"0.00000841","APOAPSIS":"566.521","FILE":"3927436","RCS_SIZE":"LARGE","MEAN_MOTION":"15.01256335","OBJECT_ID":"2022-084AU","MEAN_ELEMENT_THEORY":"SGP4","DECAY_DATE":null,"REF_FRAME":"TEME","EPHEMERIS_TYPE":"0","OBJECT_TYPE":"PAYLOAD","SITE":"AFWTR","TIME_SYSTEM":"UTC","TLE_LINE1":"1 53231U 22084AU  23158.73386593  .00000841  00000-0  70109-4 0  9997","COUNTRY_CODE":"US","ARG_OF_PERICENTER":"173.1855","LAUNCH_DATE":"2022-07-22","TLE_LINE2":"2 53231  97.6559 219.9373 0005040 173.1855 186.9439 15.01256335 48395","SEMIMAJOR_AXIS":"6941.158","CLASSIFICATION_TYPE":"U","MEAN_MOTION_DDOT":"0.0000000000000","NORAD_CAT_ID":"53231","OBJECT_NAME":"STARLINK-4370","ELEMENT_SET_NO":"999","PERIOD":"95.920","RA_OF_ASC_NODE":"219.9373","CENTER_NAME":"EARTH"},{"RA_OF_ASC_NODE":"219.9381","PERIOD":"95.920","ELEMENT_SET_NO":"999","CENTER_NAME":"EARTH","COUNTRY_CODE":"US","TLE_LINE1":"1 53232U 22084AV  23158.73571534  .00000492  00000-0  42914-4 0  9994","OBJECT_NAME":"STARLINK-4371","NORAD_CAT_ID":"53232","TLE_LINE2":"2 53232  97.6553 219.9381 0005313 177.6708 182.4541 15.01258243 48393","CLASSIFICATION_TYPE":"U","SEMIMAJOR_AXIS":"6941.152","MEAN_MOTION_DDOT":"0.0000000000000","LAUNCH_DATE":"2022-07-22","ARG_OF_PERICENTER":"177.6708","REF_FRAME":"TEME","SITE":"AFWTR","TIME_SYSTEM":"UTC","OBJECT_TYPE":"PAYLOAD","EPHEMERIS_TYPE":"0","MEAN_ELEMENT_THEORY":"SGP4","OBJECT_ID":"2022-084AV","DECAY_DATE":null,"APOAPSIS":"566.705","MEAN_MOTION_DOT":"0.00000492","MEAN_MOTION":"15.01258243","FILE":"3927436","RCS_SIZE":"LARGE","PERIAPSIS":"559.329","INCLINATION":"97.6553","MEAN_ANOMALY":"182.4541","REV_AT_EPOCH":"4839","BSTAR":"0.00004291400000","EPOCH":"2023-06-07T17:39:25.805376","ECCENTRICITY":"0.00053130","GP_ID":"233432579"},{"MEAN_MOTION_DOT":"0.00000915","APOAPSIS":"563.335","MEAN_MOTION":"15.01259010","FILE":"3927436","RCS_SIZE":"LARGE","MEAN_ELEMENT_THEORY":"SGP4","OBJECT_ID":"2022-084AW","DECAY_DATE":null,"EPOCH":"2023-06-07T17:31:46.974720","ECCENTRICITY":"0.00004610","GP_ID":"233432329","REV_AT_EPOCH":"4839","PERIAPSIS":"562.695","INCLINATION":"97.6564","MEAN_ANOMALY":"278.3836","BSTAR":"0.00007585300000","PERIOD":"95.919","ELEMENT_SET_NO":"999","RA_OF_ASC_NODE":"219.9371","CENTER_NAME":"EARTH","REF_FRAME":"TEME","SITE":"AFWTR","TIME_SYSTEM":"UTC","EPHEMERIS_TYPE":"0","OBJECT_TYPE":"PAYLOAD","COUNTRY_CODE":"US","TLE_LINE1":"1 53233U 22084AW  23158.73040480  .00000915  00000-0  75853-4 0  9994","OBJECT_NAME":"STARLINK-4372","NORAD_CAT_ID":"53233","ARG_OF_PERICENTER":"81.7440","LAUNCH_DATE":"2022-07-22","CLASSIFICATION_TYPE":"U","TLE_LINE2":"2 53233  97.6564 219.9371 0000461  81.7440 278.3836 15.01259010 48397","SEMIMAJOR_AXIS":"6941.150","MEAN_MOTION_DDOT":"0.0000000000000"},{"BSTAR":"0.00006198900000","MEAN_ANOMALY":"235.2275","PERIAPSIS":"562.829","INCLINATION":"97.6555","REV_AT_EPOCH":"4940","GP_ID":"233433081","ECCENTRICITY":"0.00002680","EPOCH":"2023-06-07T17:34:05.716704","DECAY_DATE":null,"OBJECT_ID":"2022-084AX","MEAN_ELEMENT_THEORY":"SGP4","FILE":"3927436","RCS_SIZE":"LARGE","MEAN_MOTION":"15.01258810","APOAPSIS":"563.202","MEAN_MOTION_DOT":"0.00000737","TLE_LINE2":"2 53234  97.6555 219.9325 0000268 124.8974 235.2275 15.01258810 49402","MEAN_MOTION_DDOT":"0.0000000000000","SEMIMAJOR_AXIS":"6941.151","CLASSIFICATION_TYPE":"U","LAUNCH_DATE":"2022-07-22","ARG_OF_PERICENTER":"124.8974","NORAD_CAT_ID":"53234","OBJECT_NAME":"STARLINK-4368","TLE_LINE1":"1 53234U 22084AX  23158.73201061  .00000737  00000-0  61989-4 0  9996","COUNTRY_CODE":"US","OBJECT_TYPE":"PAYLOAD","EPHEMERIS_TYPE":"0","SITE":"AFWTR","TIME_SYSTEM":"UTC","REF_FRAME":"TEME","CENTER_NAME":"EARTH","RA_OF_ASC_NODE":"219.9325","PERIOD":"95.920","ELEMENT_SET_NO":"999"},{"MEAN_MOTION_DOT":"-0.00000288","APOAPSIS":"540.524","FILE":"3927436","RCS_SIZE":"LARGE","MEAN_MOTION":"15.08838383","OBJECT_ID":"2022-086A","MEAN_ELEMENT_THEORY":"SGP4","DECAY_DATE":null,"EPOCH":"2023-06-07T21:56:44.364768","GP_ID":"233432080","ECCENTRICITY":"0.00011190","REV_AT_EPOCH":"4947","MEAN_ANOMALY":"270.6576","PERIAPSIS":"538.976","INCLINATION":"53.2177","BSTAR":"-0.00000002240000","PERIOD":"95.438","ELEMENT_SET_NO":"999","RA_OF_ASC_NODE":"34.2133","CENTER_NAME":"EARTH","REF_FRAME":"TEME","EPHEMERIS_TYPE":"0","OBJECT_TYPE":"PAYLOAD","SITE":"AFETR","TIME_SYSTEM":"UTC","TLE_LINE1":"1 53242U 22086A   23158.91440237 -.00000288  00000-0 -22400-7 0  9998","COUNTRY_CODE":"US","LAUNCH_DATE":"2022-07-24","ARG_OF_PERICENTER":"89.4544","TLE_LINE2":"2 53242  53.2177  34.2133 0001119  89.4544 270.6576 15.08838383 49479","CLASSIFICATION_TYPE":"U","SEMIMAJOR_AXIS":"6917.885","MEAN_MOTION_DDOT":"0.0000000000000","OBJECT_NAME":"STARLINK-4056","NORAD_CAT_ID":"53242"},{"CENTER_NAME":"EARTH","ELEMENT_SET_NO":"999","PERIOD":"95.438","RA_OF_ASC_NODE":"39.5151","TIME_SYSTEM":"UTC","SITE":"AFETR","EPHEMERIS_TYPE":"0","OBJECT_TYPE":"PAYLOAD","REF_FRAME":"TEME","OBJECT_NAME":"STARLINK-4047","NORAD_CAT_ID":"53243","LAUNCH_DATE":"2022-07-24","ARG_OF_PERICENTER":"91.2771","CLASSIFICATION_TYPE":"U","TLE_LINE2":"2 53243  53.2173  39.5151 0001090  91.2771 268.8346 15.08836938 49417","SEMIMAJOR_AXIS":"6917.890","MEAN_MOTION_DDOT":"0.0000000000000","COUNTRY_CODE":"US","TLE_LINE1":"1 53243U 22086B   23158.84954434  .00001416  00000-0  10706-3 0  9994","MEAN_MOTION":"15.08836938","FILE":"3927436","RCS_SIZE":"LARGE","MEAN_MOTION_DOT":"0.00001416","APOAPSIS":"540.509","DECAY_DATE":null,"MEAN_ELEMENT_THEORY":"SGP4","OBJECT_ID":"2022-086B","ECCENTRICITY":"0.00010900","GP_ID":"233432829","EPOCH":"2023-06-07T20:23:20.630976","BSTAR":"0.00010706000000","REV_AT_EPOCH":"4941","INCLINATION":"53.2173","PERIAPSIS":"539.001","MEAN_ANOMALY":"268.8346"},{"EPOCH":"2023-06-07T21:42:49.650912","GP_ID":"233433581","ECCENTRICITY":"0.00011600","REV_AT_EPOCH":"4940","INCLINATION":"53.2169","PERIAPSIS":"538.977","MEAN_ANOMALY":"260.8917","BSTAR":"-0.00011234000000","MEAN_MOTION_DOT":"-0.00002075","APOAPSIS":"540.582","FILE":"3927436","RCS_SIZE":"LARGE","MEAN_MOTION":"15.08828714","OBJECT_ID":"2022-086C","MEAN_ELEMENT_THEORY":"SGP4","DECAY_DATE":null,"REF_FRAME":"TEME","EPHEMERIS_TYPE":"0","OBJECT_TYPE":"PAYLOAD","SITE":"AFETR","TIME_SYSTEM":"UTC","TLE_LINE1":"1 53244U 22086C   23158.90474133 -.00002075  00000-0 -11234-3 0  9996","COUNTRY_CODE":"US","LAUNCH_DATE":"2022-07-24","ARG_OF_PERICENTER":"99.2206","SEMIMAJOR_AXIS":"6917.915","TLE_LINE2":"2 53244  53.2169  39.2677 0001160  99.2206 260.8917 15.08828714 49400","MEAN_MOTION_DDOT":"0.0000000000000","CLASSIFICATION_TYPE":"U","NORAD_CAT_ID":"53244","OBJECT_NAME":"STARLINK-4125","ELEMENT_SET_NO":"999","PERIOD":"95.438","RA_OF_ASC_NODE":"39.2677","CENTER_NAME":"EARTH"},{"MEAN_ELEMENT_THEORY":"SGP4","OBJECT_ID":"2022-086D","DECAY_DATE":null,"MEAN_MOTION_DOT":"0.00000502","APOAPSIS":"540.645","MEAN_MOTION":"15.08834588","RCS_SIZE":"LARGE","FILE":"3927436","REV_AT_EPOCH":"4942","MEAN_ANOMALY":"274.8524","PERIAPSIS":"538.879","INCLINATION":"53.2184","BSTAR":"0.00004963800000","EPOCH":"2023-06-07T21:53:25.987776","ECCENTRICITY":"0.00012770","GP_ID":"233433332","PERIOD":"95.438","ELEMENT_SET_NO":"999","RA_OF_ASC_NODE":"39.2325","CENTER_NAME":"EARTH","COUNTRY_CODE":"US","TLE_LINE1":"1 53245U 22086D   23158.91210634  .00000502  00000-0  49638-4 0  9993","OBJECT_NAME":"STARLINK-4124","NORAD_CAT_ID":"53245","LAUNCH_DATE":"2022-07-24","ARG_OF_PERICENTER":"85.2614","TLE_LINE2":"2 53245  53.2184  39.2325 0001277  85.2614 274.8524 15.08834588 49422","SEMIMAJOR_AXIS":"6917.897","MEAN_MOTION_DDOT":"0.0000000000000","CLASSIFICATION_TYPE":"U","REF_FRAME":"TEME","SITE":"AFETR","TIME_SYSTEM":"UTC","OBJECT_TYPE":"PAYLOAD","EPHEMERIS_TYPE":"0"}];
